0 SL-16 DEB
1 22613U 93016X   13281.72517844  .00000371  00000-0  38283-3 0  9422
2 22613 071.0013 016.6355 0202561 281.2345 204.5493 13.73720046 27790
0 SL-16 DEB
1 22613U 93016X   13287.39462088  .00000489  00000-0  49193-3 0  9444
2 22613 071.0013 005.5149 0202773 273.2905 162.1243 13.73726260 28579
0 SL-16 DEB
1 22613U 93016X   13289.66832598  .00000530  00000-0  52907-3 0  9458
2 22613 071.0009 001.0550 0202834 270.1070 246.5046 13.73729545 28889
0 SL-16 DEB
1 22613U 93016X   13292.19124588  .00000491  00000-0  49305-3 0  9468
2 22613 071.0006 356.1060 0202898 266.5777 123.3740 13.73732425 29222
0 SL-16 DEB
1 22613U 93016X   13294.23555633  .00000514  00000-0  51486-3 0  9474
2 22613 071.0004 352.0955 0202911 263.7147 153.3501 13.73735426 29507
